RADUGA 1                
1 08513U 75123A   24195.86021448  .00000013  00000+0  00000+0 0  9991
2 08513   4.6229 277.7711 0006767 247.1897 143.8400  1.00255008187768
RADUGA 2                
1 09416U 76092A   24196.36161162 -.00000017  00000+0  00000+0 0  9999
2 09416   5.2928 280.0473 0026547  18.6059 193.6142  1.00295163122294
RADUGA 3                
1 10159U 77071A   24196.58389285 -.00000322  00000+0  00000+0 0  9994
2 10159   5.9224 283.0507 0009093 260.8509  66.6133  1.00315945169993
RADUGA 4                
1 10987U 78073A   24195.92912082  .00000121  00000+0  00000+0 0  9996
2 10987   6.5707 287.1278 0008384  18.3640  14.6994  1.00209383112555
RADUGA 5                
1 11343U 79035A   24195.79231374 -.00000168  00000+0  00000+0 0  9997
2 11343   7.0544 290.2848 0006304 196.0011 176.2214  1.00279056122309
RADUGA 6                
1 11708U 80016A   24195.92677122  .00000162  00000+0  00000+0 0  9996
2 11708   7.4438 293.7921 0002595 229.7437 144.0170  1.00278306115116
RADUGA 7                
1 12003U 80081A   24196.53007564  .00000141  00000+0  00000+0 0  9999
2 12003   7.6480 296.0000 0009568 280.2947 104.2098  1.00220959116268
RADUGA 8                
1 12351U 81027A   24195.98901178 -.00000022  00000+0  00000+0 0  9997
2 12351   7.9886 296.4460 0080953 250.6338  94.8872  1.00354777115486
RADUGA 9                
1 12618U 81069A   24195.92563992  .00000168  00000+0  00000+0 0  9991
2 12618   8.2456 299.8937 0004246 175.4830 185.9539  1.00252070 40298
RADUGA 10               
1 12897U 81102A   24196.36335207 -.00000109  00000+0  00000+0 0  9999
2 12897   8.3458 301.0036 0005479 205.1084 355.7690  1.00294981110297
RADUGA 11               
1 13669U 82113A   24196.39537200 -.00000026  00000+0  00000+0 0  9998
2 13669  10.6010 316.0517 0039705 273.1966  84.8091  0.97707989114660
RADUGA 12               
1 13974U 83028A   24196.43209557  .00000017  00000+0  00000+0 0  9998
2 13974   9.6527 311.5538 0001748 154.6218  47.2239  1.00270417162332
RADUGA 13               
1 14307U 83088A   24195.92868571 -.00000009  00000+0  00000+0 0  9997
2 14307  10.8892 317.5189 0015591  59.8885 300.8500  0.98173027112033
RADUGA 14               
1 14725U 84016A   24195.86369538 -.00000173  00000+0  00000+0 0  9997
2 14725   9.9392 315.6771 0005278 162.1709 209.6708  1.00288149111054
RADUGA 15               
1 15057U 84063A   24195.99449420  .00000139  00000+0  00000+0 0  9992
2 15057  10.0810 316.6820 0005844 185.6570 170.2813  1.00307734134048
RADUGA 16               
1 15946U 85070A   24196.19858619 -.00000214  00000+0  00000+0 0  9990
2 15946  10.6489 321.5347 0002654 198.1713 173.7789  1.00261948115186
RADUGA 17               
1 16250U 85107A   24196.13305858 -.00000018  00000+0  00000+0 0  9998
2 16250  10.8053 323.0267 0015420 203.9554 173.3863  1.00180544144638
RADUGA 18               
1 16497U 86007A   24196.03660410 -.00000060  00000+0  00000+0 0  9995
2 16497  11.6631 325.8452 0074971 183.3568 358.3701  0.98813695138916
RADUGA 19               
1 17046U 86082A   24196.13384178 -.00000171  00000+0  00000+0 0  9997
2 17046  12.1936 329.9379 0014346 171.1371 203.5930  0.98462038135992
RADUGA 20               
1 17611U 87028A   24196.26516039 -.00000111  00000+0  00000+0 0  9997
2 17611  14.2749 333.2896 0030976 156.4104 202.8723  0.95961384131560
RADUGA 21               
1 18631U 87100A   24196.31928443 -.00000267  00000+0  00000+0 0  9995
2 18631  12.3151 330.3485 0003327 166.5299 201.3653  1.00208735134041
RADUGA 22               
1 19596U 88095A   24196.56906179  .00000142  00000+0  00000+0 0  9990
2 19596  12.4271 334.9492 0008536 169.8278  26.4143  1.00348375114609
RADUGA 23               
1 19928U 89030A   24196.49904372  .00000136  00000+0  00000+0 0  9997
2 19928  12.6224 336.7946 0022687 183.0792 353.4513  1.00214903127803
RADUGA-1 1              
1 20083U 89048A   24195.73409459 -.00000259  00000+0  00000+0 0  9999
2 20083  13.4599 339.9801 0022306 136.3903 233.2087  0.98711457124337
RADUGA 24               
1 20367U 89098A   24196.36657191 -.00000261  00000+0  00000+0 0  9990
2 20367  13.2634 338.8691 0002650 197.4902 342.7045  1.00222148125926
RADUGA 25               
1 20499U 90016A   24196.46658425 -.00000007  00000+0  00000+0 0  9998
2 20499  13.0592 339.6454 0006571 173.9032 184.8800  1.00375573125855
RADUGA 26               
1 21016U 90112A   24196.50165437  .00000074  00000+0  00000+0 0  9995
2 21016  13.4679 342.9116 0006556 122.7893  61.5208  1.00286383123214
RADUGA-1 2              
1 21038U 90116A   24196.50287270  .00000040  00000+0  00000+0 0  9996
2 21038  13.5068 342.9623 0007923 130.7698  60.2127  1.00225766 40295
RADUGA 27               
1 21132U 91014A   24196.36744213 -.00000286  00000+0  00000+0 0  9991
2 21132  13.9961 342.2085 0003519 142.7239  38.7162  1.00180478122269
RADUGA 28               
1 21821U 91087A   24196.50909941 -.00000361  00000+0  00000+0 0  9997
2 21821  13.8902 346.1912 0008156 154.4839  86.2027  1.00319480119270
RADUGA 29               
1 22557U 93013A   24196.50348185  .00000024  00000+0  00000+0 0  9997
2 22557  14.2229 350.3442 0007294 145.2102  41.7596  1.00163518114633
RADUGA 30               
1 22836U 93062A   24196.43505433 -.00000134  00000+0  00000+0 0  9997
2 22836  14.3344 352.3640 0001035 277.2176 258.4768  1.00261366 38956
RADUGA-1 3              
1 22981U 94008A   24196.36744213 -.00000307  00000+0  00000+0 0  9994
2 22981  14.4509 353.4849 0004301 146.7408  23.2746  1.00296772111439
RADUGA 31               
1 23010U 94012A   24196.57115034  .00000118  00000+0  00000+0 0  9998
2 23010  14.4175 353.4933 0005150 135.5501  53.3288  1.00270398111306
RADUGA 32               
1 23448U 94087A   24196.43505433 -.00000135  00000+0  00000+0 0  9996
2 23448  14.4927 356.2417 0006765 219.1128 312.6180  1.00264035125837
RADUGA-1 4              
1 25642U 99010A   24196.57254271  .00000092  00000+0  00000+0 0  9992
2 25642  15.4396   7.4443 0002510 232.4714 309.9002  1.00209318 92909
RADUGA-1 5              
1 26477U 00049A   24196.57358697  .00000066  00000+0  00000+0 0  9991
2 26477  13.5610  13.1477 0004513  97.7677  84.5850  1.00219645 87376
RADUGA-1 6              
1 26936U 01045A   24196.57219461 -.00000058  00000+0  00000+0 0  9995
2 26936  13.9496  19.6552 0018368 183.2756 344.7349  0.97743992 81739
RADUGA-1 7              
1 28194U 04010A   24196.57323888  .00000062  00000+0  00000+0 0  9991
2 28194  12.8573  26.1886 0003791 190.1599 336.7517  1.00369268 74375
RADUGA-1M 1             
1 32373U 07058A   24196.48364069 -.00000256  00000+0  00000+0 0  9992
2 32373   8.5938  58.2072 0003028  50.6893 321.7296  0.99399453 45416
RADUGA-1 8              
1 34264U 09010A   24196.42127718 -.00000273  00000+0  00000+0 0  9994
2 34264  10.7251  48.0199 0012101  20.5459 337.4796  0.99828230 56155
RADUGA-1M 2             
1 36358U 10002A   24196.57945470 -.00000169  00000+0  00000+0 0  9996
2 36358   1.7906  88.1516 0001560  25.0929 113.3224  1.00271886 43048
RADUGA-1M 3             
1 39375U 13062A   24196.28326111  .00000167  00000+0  00000+0 0  9997
2 39375   4.1600  80.9536 0003987 244.5612 104.0815  1.00272575 39057
